{
  "type": "FeatureCollection",
  "features": [
    {
      "type": "Feature",
      "properties": {
        "norad_id": 60182,
        "name": "ALOS-4 (DAICHI-4)",
        "group": "resource",
        "lat": -55.61642177468411,
        "lon": 102.0739145870242,
        "alt_km": 638.912833709569,
        "timestamp": "2025-12-21T14:40:47.568665+00:00",
        "meta_object_name": "ALOS-4 (DAICHI-4)",
        "meta_object_id": "2024-123A",
        "meta_epoch": "2025-12-20T19:27:23.067360",
        "meta_mean_motion": 14.79476697,
        "meta_eccentricity": 0.00013881,
        "meta_inclination": 97.9224,
        "meta_ra_of_asc_node": 89.5428,
        "meta_arg_of_pericenter": 101.339,
        "meta_mean_anomaly": 258.7977,
        "meta_ephemeris_type": 0,
        "meta_classification_type": "U",
        "meta_norad_cat_id": 60182,
        "meta_element_set_no": 999,
        "meta_rev_at_epoch": 7950,
        "meta_bstar": 0.00018374076,
        "meta_mean_motion_dot": 1.321e-05,
        "meta_mean_motion_ddot": 0,
        "tle_line1": "1 60182U 24123A   25354.81068365  .00001321  00000+0  18374-3 0  9997",
        "tle_line2": "2 60182  97.9224  89.5428 0001388 101.3390 258.7977 14.79476697 79501"
      },
      "geometry": {
        "type": "Point",
        "coordinates": [
          102.0739145870242,
          -55.61642177468411
        ]
      }
    },
    {
      "type": "Feature",
      "properties": {
        "norad_id": 60452,
        "name": "LEGION 3",
        "group": "resource",
        "lat": 30.32298620233807,
        "lon": 46.74683200115467,
        "alt_km": 517.8789664746582,
        "timestamp": "2025-12-21T14:40:47.568675+00:00",
        "meta_object_name": "LEGION 3",
        "meta_object_id": "2024-146A",
        "meta_epoch": "2025-12-21T04:35:55.463424",
        "meta_mean_motion": 15.15842235,
        "meta_eccentricity": 0.00156688,
        "meta_inclination": 45.0016,
        "meta_ra_of_asc_node": 264.8217,
        "meta_arg_of_pericenter": 244.0997,
        "meta_mean_anomaly": 115.8267,
        "meta_ephemeris_type": 0,
        "meta_classification_type": "U",
        "meta_norad_cat_id": 60452,
        "meta_element_set_no": 999,
        "meta_rev_at_epoch": 7501,
        "meta_bstar": 0.00019211156,
        "meta_mean_motion_dot": 3.481e-05,
        "meta_mean_motion_ddot": 0,
        "tle_line1": "1 60452U 24146A   25355.19161416  .00003481  00000+0  19211-3 0  9995",
        "tle_line2": "2 60452  45.0016 264.8217 0015668 244.0997 115.8267 15.15842235 75015"
      },
      "geometry": {
        "type": "Point",
        "coordinates": [
          46.74683200115467,
          30.32298620233807
        ]
      }
    },
    {
      "type": "Feature",
      "properties": {
        "norad_id": 60453,
        "name": "LEGION 4",
        "group": "resource",
        "lat": 30.956023741511117,
        "lon": 137.51730335940314,
        "alt_km": 517.6737169996177,
        "timestamp": "2025-12-21T14:40:47.568686+00:00",
        "meta_object_name": "LEGION 4",
        "meta_object_id": "2024-146B",
        "meta_epoch": "2025-12-21T04:36:20.052864",
        "meta_mean_motion": 15.15905103,
        "meta_eccentricity": 0.00086353,
        "meta_inclination": 45.0392,
        "meta_ra_of_asc_node": 356.5955,
        "meta_arg_of_pericenter": 356.8359,
        "meta_mean_anomaly": 3.2464,
        "meta_ephemeris_type": 0,
        "meta_classification_type": "U",
        "meta_norad_cat_id": 60453,
        "meta_element_set_no": 999,
        "meta_rev_at_epoch": 7386,
        "meta_bstar": 0.00021968256,
        "meta_mean_motion_dot": 4.019e-05,
        "meta_mean_motion_ddot": 0,
        "tle_line1": "1 60453U 24146B   25355.19189876  .00004019  00000+0  21968-3 0  9996",
        "tle_line2": "2 60453  45.0392 356.5955 0008635 356.8359   3.2464 15.15905103 73865"
      },
      "geometry": {
        "type": "Point",
        "coordinates": [
          137.51730335940314,
          30.956023741511117
        ]
      }
    },
    {
      "type": "Feature",
      "properties": {
        "norad_id": 60989,
        "name": "SENTINEL-2C",
        "group": "resource",
        "lat": -43.24573507801711,
        "lon": 76.11743165312578,
        "alt_km": 796.2470789381323,
        "timestamp": "2025-12-21T14:40:47.568695+00:00",
        "meta_object_name": "SENTINEL-2C",
        "meta_object_id": "2024-157A",
        "meta_epoch": "2025-12-21T04:48:52.493184",
        "meta_mean_motion": 14.30820648,
        "meta_eccentricity": 0.00011952,
        "meta_inclination": 98.5673,
        "meta_ra_of_asc_node": 67.561,
        "meta_arg_of_pericenter": 95.4997,
        "meta_mean_anomaly": 264.6322,
        "meta_ephemeris_type": 0,
        "meta_classification_type": "U",
        "meta_norad_cat_id": 60989,
        "meta_element_set_no": 999,
        "meta_rev_at_epoch": 6753,
        "meta_bstar": 5.7471349e-05,
        "meta_mean_motion_dot": 1.07e-06,
        "meta_mean_motion_ddot": 0,
        "tle_line1": "1 60989U 24157A   25355.20060756  .00000107  00000+0  57471-4 0  9992",
        "tle_line2": "2 60989  98.5673  67.5610 0001195  95.4997 264.6322 14.30820648 67538"
      },
      "geometry": {
        "type": "Point",
        "coordinates": [
          76.11743165312578,
          -43.24573507801711
        ]
      }
    },
    {
      "type": "Feature",
      "properties": {
        "norad_id": 61735,
        "name": "IONOSFERA-M 1",
        "group": "resource",
        "lat": -35.38008974595966,
        "lon": -128.337006738121,
        "alt_km": 822.1327767427256,
        "timestamp": "2025-12-21T14:40:47.568706+00:00",
        "meta_object_name": "IONOSFERA-M 1",
        "meta_object_id": "2024-199A",
        "meta_epoch": "2025-12-21T06:24:31.456800",
        "meta_mean_motion": 14.22715825,
        "meta_eccentricity": 5.484e-05,
        "meta_inclination": 98.7398,
        "meta_ra_of_asc_node": 225.0496,
        "meta_arg_of_pericenter": 10.9488,
        "meta_mean_anomaly": 349.1702,
        "meta_ephemeris_type": 0,
        "meta_classification_type": "U",
        "meta_norad_cat_id": 61735,
        "meta_element_set_no": 999,
        "meta_rev_at_epoch": 10240,
        "meta_bstar": 4.4132909e-05,
        "meta_mean_motion_dot": 5.5e-07,
        "meta_mean_motion_ddot": 0,
        "tle_line1": "1 61735U 24199A   25355.26703075  .00000055  00000+0  44133-4 0  9995",
        "tle_line2": "2 61735  98.7398 225.0496 0000548  10.9488 349.1702 14.22715825102403"
      },
      "geometry": {
        "type": "Point",
        "coordinates": [
          -128.337006738121,
          -35.38008974595966
        ]
      }
    },
    {
      "type": "Feature",
      "properties": {
        "norad_id": 61736,
        "name": "IONOSFERA-M 2",
        "group": "resource",
        "lat": 32.48247881476042,
        "lon": 50.92400340152748,
        "alt_km": 813.3268297376744,
        "timestamp": "2025-12-21T14:40:47.568716+00:00",
        "meta_object_name": "IONOSFERA-M 2",
        "meta_object_id": "2024-199B",
        "meta_epoch": "2025-12-21T05:33:07.543584",
        "meta_mean_motion": 14.22717997,
        "meta_eccentricity": 0.00018146,
        "meta_inclination": 98.7397,
        "meta_ra_of_asc_node": 224.9266,
        "meta_arg_of_pericenter": 99.6869,
        "meta_mean_anomaly": 260.4514,
        "meta_ephemeris_type": 0,
        "meta_classification_type": "U",
        "meta_norad_cat_id": 61736,
        "meta_element_set_no": 999,
        "meta_rev_at_epoch": 10552,
        "meta_bstar": 4.6855061e-05,
        "meta_mean_motion_dot": 6.1e-07,
        "meta_mean_motion_ddot": 0,
        "tle_line1": "1 61736U 24199B   25355.23133731  .00000061  00000+0  46855-4 0  9999",
        "tle_line2": "2 61736  98.7397 224.9266 0001814  99.6869 260.4514 14.22717997105524"
      },
      "geometry": {
        "type": "Point",
        "coordinates": [
          50.92400340152748,
          32.48247881476042
        ]
      }
    },
    {
      "type": "Feature",
      "properties": {
        "norad_id": 63772,
        "name": "BIOMASS",
        "group": "resource",
        "lat": -31.511906372811595,
        "lon": -174.51820372977,
        "alt_km": 675.4228336466567,
        "timestamp": "2025-12-21T14:40:47.568726+00:00",
        "meta_object_name": "BIOMASS",
        "meta_object_id": "2025-090A",
        "meta_epoch": "2025-12-21T01:44:01.476384",
        "meta_mean_motion": 14.67531176,
        "meta_eccentricity": 0.00012746,
        "meta_inclination": 98.0692,
        "meta_ra_of_asc_node": 179.9608,
        "meta_arg_of_pericenter": 86.9021,
        "meta_mean_anomaly": 273.233,
        "meta_ephemeris_type": 0,
        "meta_classification_type": "U",
        "meta_norad_cat_id": 63772,
        "meta_element_set_no": 999,
        "meta_rev_at_epoch": 3456,
        "meta_bstar": 0.00016266869,
        "meta_mean_motion_dot": 8.74e-06,
        "meta_mean_motion_ddot": 0,
        "tle_line1": "1 63772U 25090A   25355.07223931  .00000874  00000+0  16267-3 0  9991",
        "tle_line2": "2 63772  98.0692 179.9608 0001274  86.9021 273.2330 14.67531176 34560"
      },
      "geometry": {
        "type": "Point",
        "coordinates": [
          -174.51820372977,
          -31.511906372811595
        ]
      }
    }
  ]
}